{"type":"FeatureCollection","features":[{"type":"Feature","properties":{"featurecla":"Admin-0 breakaway and disputed","scalerank":0,"LABELRANK":7,"SOVEREIGNT":"Georgia","SOV_A3":"GEO","ADM0_DIF":1,"LEVEL":2,"TYPE":"Breakaway","TLC":"1","ADMIN":"Georgia","ADM0_A3":"B35","GEOU_DIF":0,"GEOUNIT":"Georgia","GU_A3":"B35","SU_DIF":0,"SUBUNIT":"Georgia","SU_A3":"B35","BRK_DIFF":0,"NAME":"Georgia","NAME_LONG":"Georgia","BRK_A3":"B35","BRK_NAME":"Abkhazia","BRK_GROUP":null,"ABBREV":"Abkh.","POSTAL":"AB","FORMAL_EN":null,"FORMAL_FR":null,"NAME_CIAWF":null,"NOTE_ADM0":"Self admin.","NOTE_BRK":"Self admin.; Claimed by Georgia","NAME_SORT":"Abkhazia","NAME_ALT":null,"MAPCOLOR7":5,"MAPCOLOR8":1,"MAPCOLOR9":3,"MAPCOLOR13":2,"POP_EST":245246,"POP_RANK":10,"POP_YEAR":2018,"GDP_MD":500,"GDP_YEAR":2013,"ECONOMY":"6. Developing region","INCOME_GRP":"4. Lower middle income","FIPS_10":"-99","ISO_A2":"-99","ISO_A2_EH":"GE","ISO_A3":"-99","ISO_A3_EH":"GEO","ISO_N3":"-99","ISO_N3_EH":"268","UN_A3":"-099","WB_A2":"-99","WB_A3":"-99","WOE_ID":20070401,"WOE_ID_EH":20070401,"WOE_NOTE":"WOE Admin-1 states provinces (territory) match.","ADM0_ISO":"GEO","ADM0_DIFF":"1","ADM0_TLC":"B35","ADM0_A3_US":"B35","ADM0_A3_FR":"GEO","ADM0_A3_RU":"B35","ADM0_A3_ES":"GEO","ADM0_A3_CN":"GEO","ADM0_A3_TW":"GEO","ADM0_A3_IN":"GEO","ADM0_A3_NP":"GEO","ADM0_A3_PK":"GEO","ADM0_A3_DE":"GEO","ADM0_A3_GB":"B35","ADM0_A3_BR":"GEO","ADM0_A3_IL":"GEO","ADM0_A3_PS":"GEO","ADM0_A3_SA":"GEO","ADM0_A3_EG":"GEO","ADM0_A3_MA":"GEO","ADM0_A3_PT":"GEO","ADM0_A3_AR":"GEO","ADM0_A3_JP":"GEO","ADM0_A3_KO":"GEO","ADM0_A3_VN":"GEO","ADM0_A3_TR":"GEO","ADM0_A3_ID":"GEO","ADM0_A3_PL":"GEO","ADM0_A3_GR":"GEO","ADM0_A3_IT":"GEO","ADM0_A3_NL":"GEO","ADM0_A3_SE":"GEO","ADM0_A3_BD":"GEO","ADM0_A3_UA":"GEO","ADM0_A3_UN":-99,"ADM0_A3_WB":-99,"CONTINENT":"Asia","REGION_UN":"Asia","SUBREGION":"Western Asia","REGION_WB":"Europe & Central Asia","NAME_LEN":7,"LONG_LEN":7,"ABBREV_LEN":5,"TINY":-99,"HOMEPART":-99,"MIN_ZOOM":5,"MIN_LABEL":6.5,"MAX_LABEL":9,"LABEL_X":41.279112,"LABEL_Y":43.05785,"NE_ID":1159320785,"WIKIDATAID":"Q23334","NAME_AR":"أبخازيا","NAME_BN":"আবখাজিয়া","NAME_DE":"Abchasien","NAME_EN":"Abkhazia","NAME_ES":"Abjasia","NAME_FA":"آبخاز","NAME_FR":"Abkhazie","NAME_EL":"Αμπχαζία","NAME_HE":"אבחזיה","NAME_HI":"अबख़ाज़िया","NAME_HU":"Abházia","NAME_ID":"Abkhazia","NAME_IT":"Abcasia","NAME_JA":"アブハジア","NAME_KO":"압하지야","NAME_NL":"Abchazië","NAME_PL":"Abchazja","NAME_PT":"Abecásia","NAME_RU":"Абхазия","NAME_SV":"Abchazien","NAME_TR":"Abhazya","NAME_UK":"Абхазія","NAME_UR":"ابخازيا","NAME_VI":"Abkhazia","NAME_ZH":"阿布哈兹","NAME_ZHT":"阿布哈茲","FCLASS_ISO":"Unrecognized","TLC_DIFF":"1","FCLASS_TLC":"Admin-0 breakaway and disputed","FCLASS_US":null,"FCLASS_FR":null,"FCLASS_RU":"Admin-0 country","FCLASS_ES":null,"FCLASS_CN":"Unrecognized","FCLASS_TW":"Unrecognized","FCLASS_IN":"Unrecognized","FCLASS_NP":"Unrecognized","FCLASS_PK":"Unrecognized","FCLASS_DE":"Unrecognized","FCLASS_GB":null,"FCLASS_BR":"Unrecognized","FCLASS_IL":"Unrecognized","FCLASS_PS":"Unrecognized","FCLASS_SA":"Unrecognized","FCLASS_EG":"Unrecognized","FCLASS_MA":"Unrecognized","FCLASS_PT":null,"FCLASS_AR":"Unrecognized","FCLASS_JP":"Unrecognized","FCLASS_KO":"Unrecognized","FCLASS_VN":"Unrecognized","FCLASS_TR":"Unrecognized","FCLASS_ID":"Unrecognized","FCLASS_PL":"Unrecognized","FCLASS_GR":"Unrecognized","FCLASS_IT":null,"FCLASS_NL":null,"FCLASS_SE":null,"FCLASS_BD":"Unrecognized","FCLASS_UA":"Unrecognized"},"bbox":[39.985976,42.406457,42.154334,43.575843],"geometry":{"type":"Polygon","coordinates":[[[42.154334,43.217498],[42.140302,43.19385],[42.129346,43.167856],[42.132963,43.139202],[42.13348,43.111426],[42.129181,43.103394],[42.119424,43.08321],[42.099477,43.059],[42.076326,43.039699],[42.057309,43.016884],[42.005116,43.000476],[41.945637,42.992865],[41.907964,42.987247],[41.900219,42.979783],[41.884503,42.964639],[41.902177,42.947921],[41.910651,42.92707],[41.91776,42.899984],[41.918172,42.898413],[41.925844,42.882267],[41.930909,42.86064],[41.915509,42.845189],[41.903003,42.839349],[41.892255,42.830848],[41.891531,42.820074],[41.898869,42.810876],[41.909515,42.764858],[41.908794,42.757405],[41.908171,42.739019],[41.912202,42.714628],[41.940417,42.678997],[41.944139,42.655088],[41.947135,42.635847],[41.93835,42.617993],[41.920367,42.609725],[41.899489,42.597116],[41.886688,42.582234],[41.883653,42.580039],[41.803681,42.522211],[41.722569,42.486442],[41.717358,42.485087],[41.664878,42.471439],[41.651269,42.458836],[41.629222,42.438418],[41.591291,42.42077],[41.580012,42.416735],[41.55622,42.408222],[41.551195,42.406457],[41.500173,42.64057],[41.482758,42.680243],[41.457367,42.71369],[41.424327,42.739895],[41.383474,42.75727],[41.307302,42.767646],[41.291026,42.774359],[41.274913,42.785305],[41.250743,42.795233],[41.225352,42.802314],[41.205333,42.804429],[41.193696,42.801907],[41.173595,42.792792],[41.160899,42.790839],[41.150238,42.79564],[41.104747,42.846584],[41.081798,42.908149],[41.040294,42.96133],[41.023123,42.989976],[40.998383,42.989447],[40.958995,42.976386],[40.933767,42.982733],[40.903982,43.016343],[40.886567,43.024156],[40.886241,43.029283],[40.862804,43.058987],[40.855968,43.063056],[40.783051,43.084174],[40.682872,43.094306],[40.636241,43.092475],[40.604015,43.086493],[40.591807,43.085639],[40.579926,43.088813],[40.56072,43.102973],[40.550548,43.106106],[40.546072,43.108832],[40.528982,43.12226],[40.520193,43.127265],[40.510265,43.12995],[40.478526,43.134019],[40.398285,43.16234],[40.361176,43.165473],[40.335134,43.140855],[40.325043,43.14883],[40.310313,43.175727],[40.301036,43.188666],[40.278331,43.205512],[40.268403,43.216376],[40.272797,43.247992],[40.257172,43.277411],[40.235199,43.304429],[40.219086,43.319037],[40.188243,43.329576],[40.133474,43.34162],[40.101329,43.36518],[40.086925,43.370307],[40.040782,43.3758],[40.009776,43.385159],[39.985976,43.38899],[39.991285,43.406318],[40.059187,43.535199],[40.07283,43.551064],[40.096705,43.562639],[40.164297,43.575843],[40.23313,43.575765],[40.479834,43.508741],[40.519624,43.505175],[40.550837,43.511247],[40.615536,43.535845],[40.651916,43.538971],[40.681062,43.528068],[40.689966,43.523129],[40.740179,43.495279],[40.842706,43.469389],[40.874952,43.455643],[41.011791,43.375416],[41.042487,43.369834],[41.146666,43.37986],[41.180773,43.374692],[41.213122,43.362781],[41.243921,43.344203],[41.278751,43.333196],[41.350271,43.34335],[41.380657,43.334772],[41.389752,43.324876],[41.403808,43.301518],[41.41311,43.291286],[41.427579,43.283199],[41.479773,43.271236],[41.506128,43.25979],[41.550569,43.226277],[41.577544,43.215296],[41.614131,43.213022],[41.687408,43.220205],[41.723789,43.217234],[41.788901,43.203566],[41.82032,43.20124],[41.88998,43.207028],[41.919332,43.205943],[41.948271,43.200077],[41.97969,43.188657],[42.011316,43.181861],[42.043356,43.18057],[42.075292,43.185272],[42.154334,43.217498]]]}},{"type":"Feature","properties":{"featurecla":"Admin-0 breakaway and disputed","scalerank":0,"LABELRANK":7,"SOVEREIGNT":"Georgia","SOV_A3":"GEO","ADM0_DIF":1,"LEVEL":2,"TYPE":"Breakaway","TLC":"1","ADMIN":"Georgia","ADM0_A3":"B37","GEOU_DIF":0,"GEOUNIT":"Georgia","GU_A3":"B37","SU_DIF":0,"SUBUNIT":"Georgia","SU_A3":"B37","BRK_DIFF":0,"NAME":"Georgia","NAME_LONG":"Georgia","BRK_A3":"B37","BRK_NAME":"South Ossetia","BRK_GROUP":null,"ABBREV":"S.O.","POSTAL":"SO","FORMAL_EN":null,"FORMAL_FR":null,"NAME_CIAWF":null,"NOTE_ADM0":"Self admin.","NOTE_BRK":"Self admin.; Claimed by Georgia","NAME_SORT":"South Ossetia","NAME_ALT":null,"MAPCOLOR7":5,"MAPCOLOR8":1,"MAPCOLOR9":3,"MAPCOLOR13":2,"POP_EST":53532,"POP_RANK":8,"POP_YEAR":2015,"GDP_MD":15,"GDP_YEAR":2013,"ECONOMY":"6. Developing region","INCOME_GRP":"4. Lower middle income","FIPS_10":"-99","ISO_A2":"-99","ISO_A2_EH":"GE","ISO_A3":"-99","ISO_A3_EH":"GEO","ISO_N3":"-99","ISO_N3_EH":"268","UN_A3":"-099","WB_A2":"-99","WB_A3":"-99","WOE_ID":-99,"WOE_ID_EH":-99,"WOE_NOTE":"No WOE equivalent.","ADM0_ISO":"GEO","ADM0_DIFF":"1","ADM0_TLC":"B37","ADM0_A3_US":"B37","ADM0_A3_FR":"GEO","ADM0_A3_RU":"B37","ADM0_A3_ES":"GEO","ADM0_A3_CN":"GEO","ADM0_A3_TW":"GEO","ADM0_A3_IN":"GEO","ADM0_A3_NP":"GEO","ADM0_A3_PK":"GEO","ADM0_A3_DE":"GEO","ADM0_A3_GB":"B37","ADM0_A3_BR":"GEO","ADM0_A3_IL":"GEO","ADM0_A3_PS":"GEO","ADM0_A3_SA":"GEO","ADM0_A3_EG":"GEO","ADM0_A3_MA":"GEO","ADM0_A3_PT":"GEO","ADM0_A3_AR":"GEO","ADM0_A3_JP":"GEO","ADM0_A3_KO":"GEO","ADM0_A3_VN":"GEO","ADM0_A3_TR":"GEO","ADM0_A3_ID":"GEO","ADM0_A3_PL":"GEO","ADM0_A3_GR":"GEO","ADM0_A3_IT":"GEO","ADM0_A3_NL":"GEO","ADM0_A3_SE":"GEO","ADM0_A3_BD":"GEO","ADM0_A3_UA":"GEO","ADM0_A3_UN":-99,"ADM0_A3_WB":-99,"CONTINENT":"Asia","REGION_UN":"Asia","SUBREGION":"Western Asia","REGION_WB":"Europe & Central Asia","NAME_LEN":7,"LONG_LEN":7,"ABBREV_LEN":4,"TINY":-99,"HOMEPART":-99,"MIN_ZOOM":5,"MIN_LABEL":6.5,"MAX_LABEL":9,"LABEL_X":44.130783,"LABEL_Y":42.390774,"NE_ID":1159320787,"WIKIDATAID":"Q23427","NAME_AR":"أوسيتيا الجنوبية","NAME_BN":"দক্ষিণ ওশেতিয়া","NAME_DE":"Südossetien","NAME_EN":"South Ossetia","NAME_ES":"Osetia del Sur","NAME_FA":"اوستیای جنوبی","NAME_FR":"Ossétie du Sud-Alanie","NAME_EL":"Νότια Οσσετία","NAME_HE":"דרום אוסטיה","NAME_HI":"दक्षिण ओसेतिया","NAME_HU":"Dél-Oszétia","NAME_ID":"Ossetia Selatan","NAME_IT":"Ossezia del Sud","NAME_JA":"南オセチア","NAME_KO":"남오세티야","NAME_NL":"Zuid-Ossetië","NAME_PL":"Osetia Południowa","NAME_PT":"Ossétia do Sul","NAME_RU":"Южная Осетия","NAME_SV":"Sydossetien","NAME_TR":"Güney Osetya","NAME_UK":"Південна Осетія","NAME_UR":"جنوبی اوسیشیا","NAME_VI":"Nam Ossetia","NAME_ZH":"南奥塞梯","NAME_ZHT":"南奧塞提亞","FCLASS_ISO":"Unrecognized","TLC_DIFF":"1","FCLASS_TLC":"Admin-0 breakaway and disputed","FCLASS_US":null,"FCLASS_FR":null,"FCLASS_RU":"Admin-0 country","FCLASS_ES":null,"FCLASS_CN":"Unrecognized","FCLASS_TW":"Unrecognized","FCLASS_IN":"Unrecognized","FCLASS_NP":"Unrecognized","FCLASS_PK":"Unrecognized","FCLASS_DE":"Unrecognized","FCLASS_GB":null,"FCLASS_BR":"Unrecognized","FCLASS_IL":"Unrecognized","FCLASS_PS":"Unrecognized","FCLASS_SA":"Unrecognized","FCLASS_EG":"Unrecognized","FCLASS_MA":"Unrecognized","FCLASS_PT":null,"FCLASS_AR":"Unrecognized","FCLASS_JP":"Unrecognized","FCLASS_KO":"Unrecognized","FCLASS_VN":"Unrecognized","FCLASS_TR":"Unrecognized","FCLASS_ID":"Unrecognized","FCLASS_PL":"Unrecognized","FCLASS_GR":"Unrecognized","FCLASS_IT":null,"FCLASS_NL":null,"FCLASS_SE":null,"FCLASS_BD":"Unrecognized","FCLASS_UA":"Unrecognized"},"bbox":[43.559387,41.989867,44.648726,42.753213],"geometry":{"type":"Polygon","coordinates":[[[43.782526,42.753213],[43.800613,42.746462],[43.811775,42.717265],[43.788727,42.69308],[43.753794,42.674657],[43.725682,42.6544],[43.722581,42.624867],[43.751107,42.598745],[43.796169,42.58983],[43.845003,42.58704],[43.885362,42.579211],[43.908161,42.566283],[43.920812,42.559109],[43.939726,42.55221],[43.958433,42.554406],[43.973212,42.563992],[43.998017,42.589365],[44.011504,42.600321],[44.055068,42.615307],[44.150824,42.618666],[44.185803,42.626508],[44.197384,42.629105],[44.211351,42.639634],[44.224101,42.628174],[44.244462,42.604765],[44.263324,42.579779],[44.278827,42.584404],[44.299187,42.584404],[44.314793,42.56022],[44.333397,42.539911],[44.363989,42.525106],[44.373963,42.500146],[44.394323,42.47994],[44.378769,42.46976],[44.354584,42.454903],[44.38342,42.440124],[44.409258,42.429944],[44.434114,42.440124],[44.4537,42.434594],[44.483982,42.394778],[44.514574,42.374572],[44.544133,42.36987],[44.573899,42.349535],[44.594156,42.349535],[44.629296,42.330053],[44.619064,42.309744],[44.604181,42.294939],[44.598807,42.280082],[44.619064,42.264553],[44.643972,42.224736],[44.643972,42.205254],[44.648726,42.194299],[44.639321,42.174765],[44.643972,42.139703],[44.608936,42.129523],[44.58935,42.114691],[44.598807,42.094408],[44.583201,42.069449],[44.554365,42.039761],[44.538656,42.020304],[44.514574,42.000021],[44.497,41.996505],[44.463828,41.989867],[44.444294,42.010124],[44.424037,42.010124],[44.399026,41.994518],[44.363989,41.989867],[44.333397,42.000021],[44.307973,42.006493],[44.293709,42.010124],[44.293709,42.024878],[44.293709,42.049915],[44.284253,42.060069],[44.266088,42.068935],[44.253918,42.074875],[44.203947,42.099886],[44.18369,42.089706],[44.178988,42.064695],[44.159557,42.054643],[44.159557,42.064695],[44.149325,42.080275],[44.13837,42.099886],[44.114185,42.145103],[44.093928,42.170114],[44.058788,42.189571],[44.039358,42.180269],[43.97931,42.145103],[43.949648,42.145103],[43.914508,42.154482],[43.919107,42.145103],[43.898901,42.099886],[43.854356,42.105338],[43.863761,42.080275],[43.828725,42.054643],[43.809088,42.054643],[43.784231,42.080275],[43.784231,42.110015],[43.708525,42.114691],[43.708525,42.089706],[43.693643,42.080275],[43.659329,42.099886],[43.618712,42.124872],[43.618712,42.149831],[43.603048,42.166096],[43.599178,42.170114],[43.599178,42.189571],[43.588946,42.209931],[43.594424,42.230137],[43.612563,42.245797],[43.62884,42.259851],[43.636216,42.268583],[43.653852,42.289461],[43.583675,42.309744],[43.57427,42.330053],[43.599178,42.355039],[43.564038,42.379972],[43.566457,42.400449],[43.568741,42.419789],[43.564038,42.4494],[43.583675,42.500146],[43.583675,42.529731],[43.564038,42.554768],[43.559387,42.584404],[43.599178,42.604765],[43.634421,42.644582],[43.68894,42.654633],[43.708525,42.68985],[43.754517,42.68985],[43.774051,42.71481],[43.782629,42.745221],[43.782526,42.753213]]]}},{"type":"Feature","properties":{"featurecla":"Admin-0 breakaway and disputed","scalerank":0,"LABELRANK":7,"SOVEREIGNT":"Moldova","SOV_A3":"MDA","ADM0_DIF":0,"LEVEL":5,"TYPE":"Breakaway","TLC":null,"ADMIN":"Moldova","ADM0_A3":"MDA","GEOU_DIF":0,"GEOUNIT":"Moldova","GU_A3":"MDA","SU_DIF":0,"SUBUNIT":"Moldova","SU_A3":"MDA","BRK_DIFF":1,"NAME":"Moldova","NAME_LONG":"Moldova","BRK_A3":"B36","BRK_NAME":"Transnistria","BRK_GROUP":null,"ABBREV":"Transn.","POSTAL":"TN","FORMAL_EN":null,"FORMAL_FR":null,"NAME_CIAWF":null,"NOTE_ADM0":"Self admin.","NOTE_BRK":"Self admin.; Claimed by Moldova","NAME_SORT":"Transnistria","NAME_ALT":null,"MAPCOLOR7":3,"MAPCOLOR8":5,"MAPCOLOR9":4,"MAPCOLOR13":12,"POP_EST":469000,"POP_RANK":10,"POP_YEAR":2018,"GDP_MD":799,"GDP_YEAR":2013,"ECONOMY":"6. Developing region","INCOME_GRP":"4. Lower middle income","FIPS_10":"-99","ISO_A2":"-99","ISO_A2_EH":"MD","ISO_A3":"-99","ISO_A3_EH":"MDA","ISO_N3":"-99","ISO_N3_EH":"498","UN_A3":"-099","WB_A2":"-99","WB_A3":"-99","WOE_ID":20069876,"WOE_ID_EH":20069876,"WOE_NOTE":"WOE Admin-1 states provinces (territory) match.","ADM0_ISO":"-99","ADM0_DIFF":null,"ADM0_TLC":"-99","ADM0_A3_US":"MDA","ADM0_A3_FR":"MDA","ADM0_A3_RU":"MDA","ADM0_A3_ES":"MDA","ADM0_A3_CN":"MDA","ADM0_A3_TW":"MDA","ADM0_A3_IN":"MDA","ADM0_A3_NP":"MDA","ADM0_A3_PK":"MDA","ADM0_A3_DE":"MDA","ADM0_A3_GB":"MDA","ADM0_A3_BR":"MDA","ADM0_A3_IL":"MDA","ADM0_A3_PS":"MDA","ADM0_A3_SA":"MDA","ADM0_A3_EG":"MDA","ADM0_A3_MA":"MDA","ADM0_A3_PT":"MDA","ADM0_A3_AR":"MDA","ADM0_A3_JP":"MDA","ADM0_A3_KO":"MDA","ADM0_A3_VN":"MDA","ADM0_A3_TR":"MDA","ADM0_A3_ID":"MDA","ADM0_A3_PL":"MDA","ADM0_A3_GR":"MDA","ADM0_A3_IT":"MDA","ADM0_A3_NL":"MDA","ADM0_A3_SE":"MDA","ADM0_A3_BD":"MDA","ADM0_A3_UA":"MDA","ADM0_A3_UN":-99,"ADM0_A3_WB":-99,"CONTINENT":"Europe","REGION_UN":"Europe","SUBREGION":"Eastern Europe","REGION_WB":"Europe & Central Asia","NAME_LEN":7,"LONG_LEN":7,"ABBREV_LEN":7,"TINY":-99,"HOMEPART":1,"MIN_ZOOM":5,"MIN_LABEL":7,"MAX_LABEL":9,"LABEL_X":29.252183,"LABEL_Y":47.290691,"NE_ID":1159321047,"WIKIDATAID":"Q907112","NAME_AR":"ترانسنيستريا","NAME_BN":"ট্রান্সনিস্ত্রিয়া","NAME_DE":"Transnistrien","NAME_EN":"Transnistria","NAME_ES":"Transnistria","NAME_FA":"ترنسنیستریا","NAME_FR":"Transnistrie","NAME_EL":"Υπερδνειστερία","NAME_HE":"טרנסניסטריה","NAME_HI":"ट्रांसनिस्त्रिया","NAME_HU":"Dnyeszter Menti Köztársaság","NAME_ID":"Transnistria","NAME_IT":"Transnistria","NAME_JA":"沿ドニエストル共和国","NAME_KO":"트란스니스트리아","NAME_NL":"Transnistrië","NAME_PL":"Naddniestrze","NAME_PT":"Transnístria","NAME_RU":"Приднестровская Молдавская Республика","NAME_SV":"Transnistrien","NAME_TR":"Transdinyester","NAME_UK":"Придністровська Молдавська Республіка","NAME_UR":"ٹرینسنیسٹریا","NAME_VI":"Transnistria","NAME_ZH":"德涅斯特河沿岸","NAME_ZHT":"聶斯特河沿岸","FCLASS_ISO":"Unrecognized","TLC_DIFF":null,"FCLASS_TLC":"Unrecognized","FCLASS_US":null,"FCLASS_FR":"Unrecognized","FCLASS_RU":null,"FCLASS_ES":"Unrecognized","FCLASS_CN":"Unrecognized","FCLASS_TW":"Unrecognized","FCLASS_IN":"Unrecognized","FCLASS_NP":"Unrecognized","FCLASS_PK":"Unrecognized","FCLASS_DE":"Unrecognized","FCLASS_GB":"Unrecognized","FCLASS_BR":"Unrecognized","FCLASS_IL":"Unrecognized","FCLASS_PS":"Unrecognized","FCLASS_SA":"Unrecognized","FCLASS_EG":"Unrecognized","FCLASS_MA":"Unrecognized","FCLASS_PT":"Unrecognized","FCLASS_AR":"Unrecognized","FCLASS_JP":"Unrecognized","FCLASS_KO":"Unrecognized","FCLASS_VN":"Unrecognized","FCLASS_TR":"Unrecognized","FCLASS_ID":"Unrecognized","FCLASS_PL":"Unrecognized","FCLASS_GR":"Unrecognized","FCLASS_IT":"Unrecognized","FCLASS_NL":"Unrecognized","FCLASS_SE":"Unrecognized","FCLASS_BD":"Unrecognized","FCLASS_UA":"Unrecognized"},"bbox":[28.501082,46.553129,29.952621,48.155951],"geometry":{"type":"Polygon","coordinates":[[[29.898826,46.553129],[29.890661,46.558115],[29.870817,46.576435],[29.867768,46.580414],[29.867485,46.580415],[29.852937,46.580491],[29.840328,46.582248],[29.839874,46.58253],[29.830509,46.588346],[29.823585,46.600981],[29.82337,46.600874],[29.786998,46.582713],[29.775939,46.580414],[29.74297,46.592971],[29.72819,46.594108],[29.728306,46.594314],[29.735632,46.607337],[29.747931,46.617311],[29.762297,46.624442],[29.775939,46.62886],[29.758886,46.658497],[29.749124,46.665431],[29.72819,46.669814],[29.720955,46.668005],[29.711654,46.664646],[29.703489,46.664646],[29.703386,46.664904],[29.700182,46.672966],[29.695841,46.675653],[29.695721,46.675666],[29.685815,46.676687],[29.666592,46.676015],[29.666841,46.676348],[29.689743,46.706969],[29.698114,46.72764],[29.689795,46.74831],[29.679821,46.764072],[29.664938,46.800917],[29.652432,46.813242],[29.647161,46.814379],[29.628145,46.813242],[29.620393,46.81487],[29.616776,46.818616],[29.614812,46.823164],[29.611401,46.826859],[29.616672,46.826859],[29.618843,46.83182],[29.618171,46.837711],[29.614812,46.840527],[29.608921,46.839545],[29.605717,46.837452],[29.603443,46.835282],[29.600756,46.834352],[29.590214,46.823655],[29.576882,46.802467],[29.562722,46.786887],[29.54939,46.793346],[29.542517,46.793346],[29.532278,46.783855],[29.530838,46.78252],[29.512079,46.786887],[29.51186,46.787114],[29.498127,46.80133],[29.501641,46.820657],[29.495026,46.828306],[29.494406,46.837788],[29.495543,46.84895],[29.494096,46.861637],[29.48867,46.872463],[29.476629,46.88949],[29.474252,46.898921],[29.474252,46.922977],[29.471152,46.941374],[29.461787,46.951082],[29.459886,46.953052],[29.459745,46.953077],[29.436115,46.957238],[29.416168,46.952329],[29.397254,46.94251],[29.37617,46.934914],[29.350022,46.936723],[29.335315,46.943879],[29.332659,46.945172],[29.316329,46.958427],[29.30341,46.974679],[29.295503,46.991965],[29.309301,46.988089],[29.325011,46.988089],[29.341392,46.991706],[29.366869,47.002688],[29.370538,47.002533],[29.372863,47.003954],[29.378031,47.01248],[29.377222,47.012254],[29.373793,47.011292],[29.373563,47.01164],[29.369452,47.017855],[29.364285,47.032893],[29.370434,47.032893],[29.37949,47.029305],[29.380566,47.028879],[29.381131,47.028655],[29.382578,47.041523],[29.378031,47.070513],[29.371726,47.078419],[29.371345,47.078688],[29.363763,47.084031],[29.329558,47.108133],[29.329334,47.108207],[29.305115,47.116143],[29.298642,47.119902],[29.295503,47.121724],[29.291524,47.128442],[29.292868,47.135109],[29.292625,47.135895],[29.291318,47.140121],[29.290876,47.140192],[29.278502,47.142188],[29.264446,47.148028],[29.264371,47.148081],[29.249976,47.158234],[29.24986,47.158269],[29.236954,47.162213],[29.227239,47.14901],[29.221038,47.14901],[29.220807,47.149267],[29.213183,47.157794],[29.212765,47.157961],[29.200574,47.162833],[29.188171,47.162497],[29.179386,47.155831],[29.180213,47.145082],[29.188171,47.134488],[29.194269,47.123585],[29.18967,47.111441],[29.179696,47.109296],[29.167191,47.112474],[29.156545,47.113353],[29.148277,47.0963],[29.130604,47.081572],[29.124713,47.073872],[29.118903,47.077967],[29.098978,47.09201],[29.098683,47.092149],[29.084922,47.098625],[29.069522,47.10126],[29.069621,47.101421],[29.078927,47.116608],[29.094637,47.134643],[29.112414,47.14963],[29.144867,47.162678],[29.163677,47.191591],[29.179386,47.196759],[29.163677,47.230503],[29.163333,47.230896],[29.125324,47.274331],[29.09381,47.310343],[29.080478,47.332254],[29.079238,47.34768],[29.088643,47.351271],[29.123059,47.32905],[29.139699,47.329102],[29.154323,47.335949],[29.165227,47.34768],[29.139492,47.375714],[29.105696,47.390519],[29.082907,47.406151],[29.09071,47.437054],[29.107505,47.4539],[29.110967,47.463719],[29.108287,47.469365],[29.104197,47.477982],[29.09319,47.487128],[29.092981,47.487217],[29.049058,47.505939],[29.048899,47.506066],[29.033556,47.518367],[29.025184,47.532759],[29.02167,47.549941],[29.02105,47.570793],[29.016192,47.581851],[28.993351,47.604511],[28.98684,47.622004],[28.989321,47.626887],[28.993971,47.638695],[28.995832,47.650658],[28.990664,47.656136],[28.98839,47.660503],[28.980949,47.687194],[28.975988,47.743237],[28.980949,47.765303],[29.018053,47.826591],[29.018673,47.853308],[28.980949,47.875218],[28.9806,47.875289],[28.942262,47.883059],[28.86137,47.899455],[28.840925,47.910551],[28.82933,47.916844],[28.830571,47.94077],[28.813414,47.965135],[28.785131,47.982594],[28.784493,47.982517],[28.754193,47.978881],[28.719466,47.998725],[28.698486,48.022393],[28.681846,48.030661],[28.651977,48.019086],[28.643192,48.023323],[28.636267,48.029938],[28.631255,48.033503],[28.619317,48.032573],[28.610739,48.029214],[28.559786,47.99826],[28.538082,47.99379],[28.528212,48.009009],[28.532811,48.019783],[28.543663,48.028904],[28.563093,48.040376],[28.58981,48.062442],[28.597303,48.067093],[28.607328,48.067093],[28.61849,48.063682],[28.627585,48.062959],[28.631255,48.070736],[28.632753,48.08425],[28.629859,48.091691],[28.620713,48.094972],[28.608982,48.09567],[28.583557,48.101768],[28.555549,48.115514],[28.538082,48.119906],[28.517721,48.120604],[28.501082,48.112827],[28.519323,48.149129],[28.541596,48.155951],[28.573635,48.154969],[28.665619,48.129337],[28.735072,48.128691],[28.771246,48.124454],[28.799255,48.111793],[28.805921,48.103809],[28.80835,48.096574],[28.809176,48.089779],[28.811554,48.082906],[28.827573,48.057016],[28.830777,48.030868],[28.832534,48.024822],[28.839252,48.018285],[28.855685,48.007923],[28.862085,48.000502],[28.882557,47.976763],[28.914803,47.953146],[28.936087,47.942164],[28.950356,47.934801],[28.980846,47.926378],[29.017226,47.931081],[29.061047,47.96976],[29.092725,47.980173],[29.110037,47.979656],[29.123989,47.975987],[29.136288,47.968184],[29.147967,47.955369],[29.155822,47.939866],[29.164607,47.905604],[29.172565,47.891006],[29.186621,47.883642],[29.225999,47.87558],[29.236024,47.870723],[29.232768,47.85708],[29.21742,47.842895],[29.19892,47.829485],[29.186724,47.818219],[29.177733,47.800701],[29.177836,47.78972],[29.187448,47.783209],[29.221968,47.774811],[29.234732,47.766801],[29.238608,47.756001],[29.22667,47.743237],[29.196956,47.717502],[29.191479,47.686264],[29.192409,47.650917],[29.182074,47.613219],[29.156184,47.582781],[29.130501,47.55963],[29.117426,47.533327],[29.130397,47.4932],[29.130501,47.493097],[29.130604,47.493045],[29.130656,47.492942],[29.137189,47.484008],[29.140009,47.480152],[29.155615,47.449999],[29.163884,47.439379],[29.182074,47.429871],[29.192409,47.435814],[29.201866,47.446588],[29.21835,47.451601],[29.232613,47.44633],[29.2507,47.425375],[29.281396,47.411474],[29.288217,47.400777],[29.292713,47.388866],[29.300826,47.378194],[29.314675,47.372717],[29.330385,47.370495],[29.345836,47.365844],[29.35891,47.352718],[29.364078,47.336879],[29.364491,47.322436],[29.367592,47.308225],[29.370882,47.304434],[29.380821,47.29298],[29.394464,47.284712],[29.409553,47.279751],[29.425573,47.278666],[29.441696,47.282128],[29.459163,47.293497],[29.466087,47.307449],[29.470635,47.322746],[29.480867,47.338274],[29.501072,47.339825],[29.520968,47.33892],[29.539881,47.334218],[29.556573,47.324038],[29.57006,47.306778],[29.579259,47.283601],[29.580189,47.26045],[29.568717,47.243138],[29.544015,47.23425],[29.540398,47.212546],[29.55063,47.160172],[29.544842,47.135574],[29.530373,47.123688],[29.508669,47.119399],[29.480867,47.117487],[29.478593,47.114645],[29.47787,47.111544],[29.478696,47.108469],[29.480867,47.10524],[29.511459,47.066017],[29.520141,47.059919],[29.530993,47.066017],[29.539726,47.078885],[29.551353,47.090202],[29.570164,47.091442],[29.583393,47.085215],[29.594865,47.074595],[29.6021,47.061005],[29.60303,47.04576],[29.595433,47.032143],[29.583393,47.02279],[29.572489,47.011757],[29.564996,46.974498],[29.560626,46.961256],[29.559828,46.95884],[29.558691,46.94574],[29.567476,46.934656],[29.573161,46.933725],[29.598482,46.935379],[29.607577,46.93202],[29.623287,46.91954],[29.631865,46.914398],[29.648092,46.910419],[29.680855,46.908559],[29.696151,46.904683],[29.712481,46.893444],[29.735838,46.867192],[29.754132,46.85802],[29.785758,46.854661],[29.815213,46.856624],[29.843635,46.854144],[29.872212,46.837711],[29.876915,46.830786],[29.884873,46.812673],[29.889627,46.80717],[29.898516,46.806653],[29.907714,46.810942],[29.917429,46.813965],[29.928178,46.809754],[29.930658,46.803087],[29.930452,46.781642],[29.931795,46.772443],[29.935671,46.765157],[29.946678,46.750739],[29.951122,46.743117],[29.952621,46.724694],[29.944404,46.662476],[29.94027,46.650797],[29.935413,46.641857],[29.931899,46.632374],[29.931279,46.619171],[29.934948,46.608836],[29.947402,46.588346],[29.949675,46.578863],[29.9381,46.55734],[29.916086,46.554369],[29.898826,46.553129]]]}},{"type":"Feature","properties":{"featurecla":"Admin-0 claim area","scalerank":0,"LABELRANK":5,"SOVEREIGNT":"Russia","SOV_A3":"RUS","ADM0_DIF":0,"LEVEL":5,"TYPE":"Disputed","TLC":"1","ADMIN":"Russia","ADM0_A3":"RUS","GEOU_DIF":0,"GEOUNIT":"Russia","GU_A3":"RUS","SU_DIF":1,"SUBUNIT":"Crimea","SU_A3":"RUC","BRK_DIFF":1,"NAME":"Crimea","NAME_LONG":"Crimea","BRK_A3":"B89","BRK_NAME":"Crimea","BRK_GROUP":null,"ABBREV":"Crimea","POSTAL":"KR","FORMAL_EN":null,"FORMAL_FR":null,"NAME_CIAWF":null,"NOTE_ADM0":"Annexed by Rus.","NOTE_BRK":"Admin. by Russia; Claimed by Ukraine","NAME_SORT":"Crimea","NAME_ALT":null,"MAPCOLOR7":2,"MAPCOLOR8":5,"MAPCOLOR9":7,"MAPCOLOR13":7,"POP_EST":2416856,"POP_RANK":12,"POP_YEAR":2021,"GDP_MD":4300,"GDP_YEAR":2016,"ECONOMY":"3. Emerging region: BRIC","INCOME_GRP":"3. Upper middle income","FIPS_10":"-99","ISO_A2":"-99","ISO_A2_EH":"-99","ISO_A3":"-99","ISO_A3_EH":"-99","ISO_N3":"-99","ISO_N3_EH":"-99","UN_A3":"-099","WB_A2":"-99","WB_A3":"-99","WOE_ID":-99,"WOE_ID_EH":-99,"WOE_NOTE":"Not yet investigated.","ADM0_ISO":"-99","ADM0_DIFF":"1","ADM0_TLC":"B89","ADM0_A3_US":"UKR","ADM0_A3_FR":"UKR","ADM0_A3_RU":"RUS","ADM0_A3_ES":"UKR","ADM0_A3_CN":"UKR","ADM0_A3_TW":"UKR","ADM0_A3_IN":"UKR","ADM0_A3_NP":"UKR","ADM0_A3_PK":"UKR","ADM0_A3_DE":"UKR","ADM0_A3_GB":"UKR","ADM0_A3_BR":"UKR","ADM0_A3_IL":"UKR","ADM0_A3_PS":"UKR","ADM0_A3_SA":"UKR","ADM0_A3_EG":"UKR","ADM0_A3_MA":"UKR","ADM0_A3_PT":"UKR","ADM0_A3_AR":"UKR","ADM0_A3_JP":"UKR","ADM0_A3_KO":"UKR","ADM0_A3_VN":"UKR","ADM0_A3_TR":"UKR","ADM0_A3_ID":"UKR","ADM0_A3_PL":"UKR","ADM0_A3_GR":"UKR","ADM0_A3_IT":"UKR","ADM0_A3_NL":"UKR","ADM0_A3_SE":"UKR","ADM0_A3_BD":"UKR","ADM0_A3_UA":"UKR","ADM0_A3_UN":-99,"ADM0_A3_WB":-99,"CONTINENT":"Europe","REGION_UN":"Europe","SUBREGION":"Eastern Europe","REGION_WB":"Europe & Central Asia","NAME_LEN":6,"LONG_LEN":6,"ABBREV_LEN":6,"TINY":-99,"HOMEPART":1,"MIN_ZOOM":5,"MIN_LABEL":6,"MAX_LABEL":8,"LABEL_X":34.204665,"LABEL_Y":45.298991,"NE_ID":1159321217,"WIKIDATAID":"Q7835","NAME_AR":"القرم","NAME_BN":"ক্রিমিয়া","NAME_DE":"Krim","NAME_EN":"Crimean Peninsula","NAME_ES":"península de Crimea","NAME_FA":"کریمه","NAME_FR":"Crimée","NAME_EL":"Κριμαία","NAME_HE":"חצי האי קרים","NAME_HI":"क्रीमिया","NAME_HU":"Krím","NAME_ID":"Krimea","NAME_IT":"Crimea","NAME_JA":"クリミア半島","NAME_KO":"크림반도","NAME_NL":"Krim","NAME_PL":"Półwysep Krymski","NAME_PT":"península da Crimeia","NAME_RU":"Крымский полуостров","NAME_SV":"Krim","NAME_TR":"Kırım","NAME_UK":"Кримський півострів","NAME_UR":"جزیرہ نما کریمیا","NAME_VI":"bán đảo Krym","NAME_ZH":"克里米亚","NAME_ZHT":"克里米亞","FCLASS_ISO":"Unrecognized","TLC_DIFF":"1","FCLASS_TLC":"Admin-0 claim area","FCLASS_US":null,"FCLASS_FR":null,"FCLASS_RU":"Unrecognized","FCLASS_ES":null,"FCLASS_CN":"Unrecognized","FCLASS_TW":"Unrecognized","FCLASS_IN":"Unrecognized","FCLASS_NP":"Unrecognized","FCLASS_PK":"Unrecognized","FCLASS_DE":null,"FCLASS_GB":null,"FCLASS_BR":"Unrecognized","FCLASS_IL":"Unrecognized","FCLASS_PS":"Unrecognized","FCLASS_SA":"Unrecognized","FCLASS_EG":"Unrecognized","FCLASS_MA":null,"FCLASS_PT":null,"FCLASS_AR":"Unrecognized","FCLASS_JP":null,"FCLASS_KO":"Unrecognized","FCLASS_VN":"Unrecognized","FCLASS_TR":"Unrecognized","FCLASS_ID":"Unrecognized","FCLASS_PL":"Unrecognized","FCLASS_GR":"Unrecognized","FCLASS_IT":null,"FCLASS_NL":null,"FCLASS_SE":null,"FCLASS_BD":"Unrecognized","FCLASS_UA":"Unrecognized"},"bbox":[32.481619,44.381049,36.638357,46.218106],"geometry":{"type":"Polygon","coordinates":[[[33.628517,46.124935],[33.660449,46.148184],[33.671456,46.172951],[33.661623,46.21017],[33.67028,46.218106],[33.715726,46.195743],[33.755207,46.193372],[33.801878,46.202706],[33.846216,46.195705],[33.892888,46.177037],[33.944226,46.153701],[33.990898,46.130365],[34.025902,46.116364],[34.067906,46.104696],[34.105243,46.095361],[34.161249,46.090694],[34.20092,46.100028],[34.235923,46.097695],[34.273261,46.083693],[34.301264,46.069692],[34.333934,46.069692],[34.361937,46.055691],[34.378272,46.030021],[34.392273,46.009019],[34.410942,45.988017],[34.434277,45.971682],[34.464614,45.955347],[34.504285,45.95068],[34.52062,45.969348],[34.529954,45.981016],[34.569625,45.976349],[34.599961,45.978683],[34.641966,45.981016],[34.688637,45.974015],[34.735309,45.953013],[34.763312,45.932011],[34.784314,45.899341],[34.784314,45.869004],[34.784314,45.829334],[34.788981,45.803664],[34.809983,45.784996],[34.870656,45.773328],[34.917328,45.747658],[34.952331,45.721989],[34.975667,45.717322],[35.001891,45.729003],[35.044444,45.670071],[35.332205,45.371243],[35.480724,45.297797],[35.517833,45.295478],[35.694998,45.33039],[35.715994,45.340562],[35.743337,45.36107],[35.747406,45.370754],[35.748546,45.379706],[35.75294,45.38642],[35.767426,45.388983],[35.772716,45.392279],[35.788422,45.407457],[35.791759,45.412299],[35.794932,45.430569],[35.803966,45.449164],[35.817149,45.464057],[35.833263,45.470893],[35.857677,45.469428],[35.860037,45.45954],[35.852224,45.444159],[35.846934,45.426256],[35.854015,45.414008],[35.871104,45.40412],[35.946625,45.372138],[35.986013,45.362738],[36.022309,45.368109],[36.051768,45.395209],[36.065278,45.425482],[36.068858,45.429999],[36.096365,45.441962],[36.117931,45.457099],[36.137462,45.462063],[36.252452,45.461493],[36.267833,45.467231],[36.284028,45.47663],[36.299978,45.473334],[36.307384,45.460924],[36.298839,45.44302],[36.311697,45.443508],[36.321056,45.448391],[36.329763,45.45425],[36.340505,45.457261],[36.35963,45.454495],[36.391368,45.439643],[36.411794,45.436225],[36.470551,45.445787],[36.490571,45.44302],[36.51588,45.419745],[36.53297,45.408922],[36.548595,45.412299],[36.566661,45.425198],[36.583263,45.427395],[36.598806,45.42121],[36.613536,45.408881],[36.631114,45.374742],[36.638357,45.351264],[36.63087,45.340562],[36.598318,45.334296],[36.586192,45.333808],[36.57488,45.336086],[36.545177,45.347398],[36.521821,45.349921],[36.502452,45.346869],[36.489268,45.33633],[36.484386,45.316392],[36.487966,45.309312],[36.494395,45.305243],[36.497244,45.300727],[36.490571,45.292182],[36.482107,45.288804],[36.459321,45.287746],[36.450369,45.285346],[36.437266,45.27204],[36.426036,45.251532],[36.417979,45.229926],[36.409434,45.171129],[36.408865,45.149482],[36.414806,45.128363],[36.442231,45.106513],[36.455333,45.09162],[36.45338,45.076483],[36.440115,45.06745],[36.367849,45.048774],[36.278494,45.045844],[36.267751,45.043687],[36.257823,45.038967],[36.253917,45.033189],[36.24822,45.016099],[36.244314,45.010972],[36.22462,45.007514],[36.135997,45.02143],[36.079112,45.046373],[36.079112,45.038967],[36.047862,45.048774],[36.025401,45.032904],[36.008474,45.009752],[35.993419,44.997992],[35.91684,45.00141],[35.847992,44.992418],[35.82781,44.999213],[35.819021,45.021552],[35.812999,45.031643],[35.783214,45.057522],[35.771169,45.065619],[35.706391,45.094672],[35.634044,45.114691],[35.590587,45.119859],[35.547374,45.119696],[35.506196,45.113511],[35.469574,45.10102],[35.416759,45.070868],[35.408051,45.062486],[35.405528,45.050971],[35.400401,45.042873],[35.397309,45.035061],[35.400645,45.024644],[35.406505,45.020087],[35.435395,45.010972],[35.435395,45.004828],[35.42213,45.000434],[35.389415,45.001939],[35.374034,44.997992],[35.362153,44.986558],[35.360606,44.973578],[35.367198,44.943345],[35.319347,44.970038],[35.315278,44.966051],[35.304942,44.960924],[35.298188,44.956366],[35.273204,44.966986],[35.256033,44.958686],[35.233165,44.925686],[35.215099,44.914374],[35.171886,44.907172],[35.154307,44.901109],[35.129731,44.868598],[35.108409,44.824937],[35.080821,44.793769],[35.037608,44.798774],[35.027029,44.809394],[35.017833,44.823188],[35.005707,44.835191],[34.986013,44.840277],[34.952485,44.841539],[34.942068,44.840277],[34.930186,44.836127],[34.922618,44.830878],[34.916026,44.825344],[34.907888,44.820502],[34.889903,44.818101],[34.857188,44.823717],[34.842621,44.816718],[34.826508,44.811835],[34.757009,44.820502],[34.720958,44.810981],[34.650645,44.777289],[34.613048,44.765204],[34.533214,44.752916],[34.500011,44.742621],[34.475271,44.723619],[34.474376,44.726386],[34.474376,44.728909],[34.473318,44.730292],[34.469005,44.729804],[34.429373,44.689643],[34.424001,44.682685],[34.414317,44.673774],[34.380219,44.631334],[34.341156,44.558498],[34.331309,44.545478],[34.322765,44.543524],[34.300304,44.5456],[34.286143,44.545396],[34.275401,44.546373],[34.271007,44.545478],[34.266124,44.541938],[34.265798,44.538967],[34.266124,44.535834],[34.26352,44.531887],[34.242931,44.507473],[34.229828,44.499905],[34.182465,44.492825],[34.170095,44.481635],[34.160818,44.466457],[34.147472,44.449897],[34.136485,44.441962],[34.10255,44.425116],[34.088715,44.422024],[34.065766,44.419623],[33.957856,44.383002],[33.937755,44.381049],[33.914887,44.383775],[33.852061,44.401516],[33.83961,44.40119],[33.818614,44.395982],[33.807628,44.39468],[33.741222,44.395901],[33.720958,44.399644],[33.645356,44.425116],[33.631684,44.434312],[33.62615,44.45303],[33.620128,44.462226],[33.590017,44.490058],[33.57838,44.497056],[33.560395,44.496283],[33.539073,44.491604],[33.517589,44.490546],[33.499522,44.5008],[33.487153,44.510321],[33.379649,44.564521],[33.372325,44.576483],[33.371349,44.587958],[33.371104,44.588446],[33.375011,44.585395],[33.405447,44.590237],[33.413829,44.593329],[33.435883,44.605292],[33.444998,44.60692],[33.466482,44.60578],[33.477387,44.606635],[33.485525,44.610338],[33.500011,44.613918],[33.551117,44.614651],[33.571544,44.620551],[33.557791,44.624335],[33.525157,44.628852],[33.516287,44.634263],[33.514822,44.649115],[33.523611,44.661444],[33.535655,44.672187],[33.5442,44.682685],[33.54835,44.698676],[33.546723,44.70954],[33.536794,44.729804],[33.530447,44.75731],[33.525157,44.772406],[33.516287,44.785102],[33.524181,44.7897],[33.52768,44.793199],[33.530528,44.798774],[33.537364,44.818996],[33.546072,44.8369],[33.559581,44.849758],[33.598318,44.85932],[33.609223,44.871731],[33.616059,44.889106],[33.619884,44.908637],[33.61964,44.931464],[33.608572,44.970608],[33.605642,44.987454],[33.602794,44.993394],[33.585216,45.018459],[33.581798,45.027493],[33.57838,45.053209],[33.562511,45.09394],[33.537446,45.117377],[33.469086,45.14883],[33.413422,45.184516],[33.396495,45.189765],[33.355154,45.185736],[33.317638,45.175482],[33.282563,45.160549],[33.259613,45.156073],[33.24936,45.165595],[33.240082,45.179633],[33.218516,45.187445],[33.173595,45.196601],[33.158376,45.206773],[33.123302,45.23786],[33.098481,45.248114],[33.090017,45.256659],[33.078624,45.271674],[33.069347,45.276557],[33.051768,45.281643],[33.043224,45.285346],[32.976573,45.32567],[32.940603,45.342515],[32.899262,45.354234],[32.750173,45.363349],[32.728526,45.36107],[32.712738,45.353176],[32.677419,45.325995],[32.663097,45.320136],[32.591482,45.320136],[32.57016,45.325181],[32.535411,45.338039],[32.512869,45.340562],[32.48585,45.394924],[32.481619,45.408881],[32.495128,45.435533],[32.525157,45.458157],[32.643565,45.521674],[32.663097,45.52558],[32.686209,45.527004],[32.704845,45.531073],[32.72047,45.53734],[32.734711,45.545396],[32.743826,45.552883],[32.749766,45.559638],[32.757823,45.564643],[32.77296,45.566555],[32.783051,45.565375],[32.802419,45.560248],[32.813975,45.559068],[32.827891,45.562405],[32.829763,45.570217],[32.826427,45.579413],[32.82488,45.586982],[32.826996,45.595526],[32.83074,45.60102],[32.837738,45.6081],[32.868175,45.630072],[32.936778,45.662502],[33.163422,45.736274],[33.176117,45.743109],[33.181,45.755194],[33.176443,45.758938],[33.166759,45.7626],[33.15919,45.7685],[33.160655,45.778795],[33.1692,45.78441],[33.178559,45.78026],[33.194835,45.765123],[33.230154,45.750922],[33.265391,45.753811],[33.338145,45.785631],[33.374278,45.796536],[33.379649,45.803046],[33.410004,45.826606],[33.424978,45.830959],[33.46697,45.850084],[33.482188,45.854478],[33.489513,45.852362],[33.50766,45.842963],[33.519867,45.840888],[33.530121,45.841864],[33.55421,45.847073],[33.57838,45.86815],[33.598643,45.877387],[33.610199,45.880764],[33.619884,45.881822],[33.630382,45.880032],[33.641612,45.876044],[33.650564,45.870673],[33.654063,45.864447],[33.658946,45.85932],[33.670177,45.858547],[33.691661,45.860745],[33.693126,45.872545],[33.691091,45.896226],[33.693533,45.914496],[33.708669,45.909735],[33.725271,45.916083],[33.759451,45.922268],[33.777029,45.929633],[33.758637,45.940863],[33.739594,45.947821],[33.682465,45.958441],[33.657237,45.956936],[33.645844,45.953559],[33.639008,45.947333],[33.632009,45.944403],[33.619884,45.950751],[33.638438,45.968248],[33.646821,45.979722],[33.643565,45.984931],[33.632009,45.988267],[33.631114,45.996527],[33.636485,46.006415],[33.643565,46.01496],[33.642263,46.022162],[33.629568,46.056586],[33.62794,46.067816],[33.638845,46.078315],[33.648448,46.090033],[33.643565,46.104682],[33.628517,46.124935]]]}}]}